GLOBALSTAR M023         
1 25621U 99004A   24268.57695561  .00000045  00000+0  82830-3 0  9996
2 25621  52.0093 142.2195 0009252 261.2771 130.5132 12.62475121182181
GLOBALSTAR M040         
1 25622U 99004B   24268.40002315 -.00000063  00000+0  22762-3 0  9997
2 25622  51.9902 146.5156 0001009 118.0373  53.8461 12.61984320181694
GLOBALSTAR M036         
1 25623U 99004C   24268.63554109 -.00000215  00000+0 -19320-2 0  9991
2 25623  51.9952 220.2459 0010443 264.5348 266.5802 11.86580752147430
GLOBALSTAR M038         
1 25624U 99004D   24268.58257874 -.00000055  00000+0  32652-3 0  9990
2 25624  51.9956 116.4719 0001229 194.3339 211.0671 12.32508716169628
GLOBALSTAR M022         
1 25649U 99012A   24268.32014426 -.00000078  00000+0  11068-3 0  9995
2 25649  52.0037 293.6469 0002415   9.3145   3.0187 12.02488410144398
GLOBALSTAR M041         
1 25650U 99012B   24268.43363813 -.00000131  00000+0 -58444-3 0  9996
2 25650  52.0008 166.6839 0002513 145.6621 214.4378 11.96659404146465
GLOBALSTAR M046         
1 25651U 99012C   24268.40933481 -.00000095  00000+0 -68451-4 0  9997
2 25651  52.0034 253.2391 0002458  77.9945  88.0569 12.09398714151502
GLOBALSTAR M037         
1 25652U 99012D   24268.30181447 -.00000067  00000+0  20439-3 0  9995
2 25652  51.9991 273.7726 0001797 325.5865  48.1953 12.62419034177690
